RPS_Number,StructureName,Description,StreetNumber,StreetAddress,Townland,NIAH_Ref,RMP_REF,Lat,Long
5,St. Brigid's Well,Holy Well,,Tobersool Lane,Tobersool,,DU001-001,53.6272869858849,-6.23832144264639
100,Ring-Ditch,Earthwork,,Doolagh Road,Doolagh,,DU001-002,53.6091179972111,-6.26208413097521
7,Balscadden Church (in ruins) & St. Mary's Well,"Church ruins, Graveyard & Holy Well",,Flemingtown to Toberstown Rd,Tobertown (Balscadden),11304010,DU001-003 to -00304,53.617356600281,-6.23692982564276
11,Lady Well,Holy Well,,Flemingtown Lane,Flemingtown,,DU001-004,53.615526380965,-6.21364222152724
4,Gormanstown Bridge,Stone bridge over River Delvin,,Gormanstown Road,Tobersool,,DU001-010,53.6287715542,-6.23088411542306
2,Knocknagin House,House & Outoffices,,Drogheda Road (N1),Knocknagin,11302001,DU001-012,53.6305336016055,-6.21568769957695
3,Passage Grave Cemetery,Group of five mounds (incl group of cairns),,off Drogheda Road,Bremore,,DU002-001,53.6302009998934,-6.19086853037131
14,Bremore Castle,Remains of 16th century medieval stone castle,,off Drogheda Road,Bremore,,DU002-00201,53.6172585427976,-6.19072827267038
13,St. Molaga's Church (in ruins) & Graveyard,Remains of nave & chancel of church with some decorative stonework,,off Drogheda Street,Bremore,,"DU002-00202, DU002-00203",53.6166149411933,-6.19083150944949
17,Martello Tower,Former Martello Tower,,"King Strand, off Bath Road",Tankardstown (Balbriggan),11305009,DU002-004,53.6157715243007,-6.18320724241868
16,Tankard Ville,Thatched house,,Brecan Close,Tankardstown (Balbriggan),,DU002-011,53.6125110292638,-6.19139338592028
120,Ringfort,Earthwork,,off Hedges Road,Commons Upper,,DU003-001,53.5851920498647,-6.3861334349439
127,Garristown Barrow,Barrows are earthern burial mounds,,Newtown Lane,Newtown (Garristown),,DU003-003,53.5561369280488,-6.41910619760656
125,Windmill (in ruins),"Remains of base of circular stone windmill, dated 1736 & hillfort site",,Windmill Road/Ashbourne Road,Garristown,11313005,DU003-00402,53.5635647545311,-6.39337094540533
126,Mound,"Semi-circular mound, 1.5m high, cut by field boundary",,Adamstown Road,Garristown,,DU003-005,53.5626637332531,-6.38034954792651
121,"Church (in ruins), Graveyard & Whetstone",Remains of 19th century church & older graveyard,,Chapel Road/Watery Lane,Garristown,11313010,DU003-011,53.5683209967038,-6.38411384386435
98,Ringfort,Platform type ringfort enclosed by slight fosse,,Toberstown Road,Grange (Balscadden),,DU004-001,53.6073932470628,-6.24463459745857
96,Enclosure Site,Earthwork,,Groghan Lane,Balscadden,,DU004-003,53.6023740963556,-6.22931192424169
10,Potential Site,Earthwork,,,Balscadden,,DU004-003,53.6036308540597,-6.22160239676067
116,Enclosure site,Earthwork,,Fourknocks Road,Westown,,DU004-004,53.5832586080891,-6.31013319512162
115,Mound,Bell Barrow (burial mound) on hilltop,,Naul Road,Westown,,DU004-005,53.5802469133953,-6.3073809635641
114,Ringfort possible site,Earthwork,,Naul Road,Loughmain/Cabinhill,,DU004-011,53.5742215515111,-6.28689488225797
112,Mounds,Group of three burial mounds,,Lecklinstown Lane,Kitchenstown,,DU004-01201 to 01203,53.5733816877829,-6.25550705960346
113,Mounds,Group of mounds,,Leckinstown Road,Knockbrack,,DU004-01204 to 01207,53.5717499214653,-6.25639410954324
163,Ring-ditch site,Earthwork,,,Walshestown,,DU004-015,53.563198270409,-6.24677013582129
164,Ringfort possible site,Earthwork,,Balrickard Road,Balrickard,,DU004-016,53.5704701931297,-6.23412080610754
651,Ringfort possible site,Earthwork,,off Rowans Road,Rowans Big,,DU004-017,53.5676919171177,-6.21507803580455
139,Burial Mound,Earthwork in fields at end of lane,,Knocklyon Lane,Adamstown,,DU004-018,53.5533152766905,-6.34089946642669
140,Ringfort Site,Earthwork,,Grallagh Road,Grallagh,,DU004-019,53.5526497892397,-6.32987007361327
158,Motte possible,Oval mound (4m high),,Mallahow Road,Mallahow,,DU004-020,53.5562770007683,-6.30397697184676
162,Possible Barrow,Low circular flat-topped mound (.75m high),,Hollywood Road,Hollywood Great,,DU004-021,53.5586811787208,-6.25953331188412
160,St. Kenny's Well,Holy Well,,Naul Road,Hollywood Great,,DU004-022,53.5564427977601,-6.27064234935488
161,Church (in ruins),Church in ruins with walled graveyard which is still in use,,Hollywood Road,Hollywood Great,,DU004-02301 +-02302,53.5563367198413,-6.26009193189595
165,Ring-ditch site,Earthwork,,,Walshestown,,DU004-024,53.5592250508997,-6.23845711471199
166,Enclosure Site,Earthwork,,,Walshestown,,DU004-025,53.5589198776629,-6.23760955952207
167,Enclosure site,Earthwork,,,Rowans Little,,DU004-026,53.5617802017989,-6.22487288871591
97,Whitestown House,"19th century House, outbuildings, walled enclosure, entrance gates & 2 gateloges",,Toberstown Road,Whitestown (Balscadden ED),"11304005, (+06), 11303002",DU004-037,53.6009844988519,-6.24466665869819
107,Watermill,Former Naul Mill complex,,Drogheda Road,Naul,11308002,DU004-04501,53.5875676241851,-6.29353821703731
105,Castle,"Remains of stone tower, known as ""The Black Castle""",,Drogheda Road,Naul,,DU004-04502,53.5881125552283,-6.28959796427902
103,Lady Well,Holy Well,,Balbriggan Road,Naul,,DU004-04503,53.5878845460167,-6.28742923130564
104,Church (in ruins) & Cross site,Remains of small chapel dated 1710 & graveyard,,Drogheda Road,Naul,11308004,DU004-04504,53.5870744092388,-6.28883550032913
75,Chapel site,Archaeological site,,Folkstown Lane,Folkstown Little,,DU005-001,53.598174157737,-6.20271152873431
76,Well,Possibly holy well,,Folkstown Lane,Stephenstown,,DU005-002,53.5975433485241,-6.20282947191931
73,Lady Well,Holy Well,,,Stephenstown,,DU005-003,53.5982253075199,-6.19656691507266
74,Castle (in ruins),Foundations of square tower house,,,Stephenstown,,DU005-004,53.5972842211761,-6.19760806978654
77,Ring ditch,Earthwork,,Matt Road,Stephenstown,,DU005-005,53.5930250021277,-6.19846768621618
95,Ringfort possible site,Earthwork,,,Kilsough,,DU005-00601,53.5946145033885,-6.17859652098917
82,Mound,Earthwork,,Matt Road,Inch (Balrothery),,DU005-008,53.5880286937331,-6.19032347016534
89,Ring-ditch,Earthwork,,,Gibbonsmoor (Balrothery),,DU005-014,53.5846104534453,-6.19733353486627
93,Ring-ditch,Earthwork,,,Hampton Demesne,,DU005-015,53.5871470983145,-6.172239503439
179,Cairn,Burial Mound,,,Barnagerragh,,DU005-01601 +-01602,53.5851400099005,-6.14336645534751
178,Cairn,Burial mound,,,Barnagerragh,,DU005-01701,53.5833596341411,-6.14198860314762
189,Martello Tower,19th century circular military stone martello tower,,"Harbour Road, Red Island",Townparks (Skerries),11311005,DU005-018,53.5847319362635,-6.10236514647474
773,Monastic Complex,Including Church Remains,,,St. Patrick's Island,,DU005-019,53.5852342552857,-6.07423946498312
175,Ringfort possible site,Earthwork,,Balrothery to Man O'War Road,Darcystown/Hynespark,,DU005-020,53.5781286870135,-6.19147089138547
177,Cist,Cists are burials built with stone slabs,,Grange Road,Baltrasna,,DU005-023,53.5770720548097,-6.1545922491597
240,St. Mobhi's Church (in ruins) & Graveyard,"Remains of base of church & graveyard, in grounds of Milverton Demesne",,Balcunnin Road,Grange (Holmpatrick),11310003,DU005-02401,53.5693479076116,-6.15250197426449
241,St. Mobhi's Well,"Holy Well, in grounds of Milverton Demesne",,Balcunnin Road,Grange (Holmpatrick),,DU005-02402,53.5701037657155,-6.15161656790638
181,Ringfort (Rath/Cashel),Earthwork,,,Ardla,,DU005-026,53.5772411024702,-6.13208476185722
230,The Small Windmill,"Restored windmill, unrendered with thatched conical roof & four sails",,Mill Hill,Townparks (Skerries),11311030,DU005-02701,53.5745966944714,-6.1130347978529
229,The Great Windmill,"Restored circular windmill, rendered with mansard roof & five sails",,Mill Hill,Townparks (Skerries),11311029,DU005-028,53.5750494498577,-6.1100884882182
228,Skerries Mill,"Former watermill building & complex, incl mill race, millpond, sluice and water wheel",,Mill Hill,Townparks (Skerries),11311031,DU005-029,53.5743187056358,-6.11011111137406
227,Kibe Well,Holy well,,Mill Hill,Townparks (Skerries),,DU005-030,53.5750528981719,-6.10717046120947
225,Church (in ruins) & Graveyard,"Ecclesiastical Remains, remains of bell tower & old graveyard",,Millers Lane,Townparks (Skerries),11311033 & 11311041,DU005-031,53.5735653689051,-6.10560394450326
233,Burial(s) Site of,Earthwork,,,Milverton,,DU005-032,53.5658393588361,-6.11686177628535
774,Martello Tower,19th century circular military stone martello tower,,,Shenick's Island,11311040,DU005-033,53.5734895375251,-6.08562024233247
172,Mound site,"Earthwork, possible motte",,,Jordanstown,,DU005-034,53.5543243334189,-6.20604886546952
243,Lady Well,Holy Well - stone structure fed by stream,,Baldongan Road,Balcunnin,,DU005-036,53.5614742810759,-6.14563565448043
245,Baldongan Church and Tower (in ruins),"Stone remains of 15th century church, graveyard and site of castle",,,Baldongan,11318008,"DU005-03701, DU005-03702",53.5531310678257,-6.12874180156745
64,Former Corn Mill,"Four storey former mill, now an apartment block",,Vauxhall Street,Balbriggan,11305037,DU005-050,53.6053642569399,-6.18516743120426
70,Corn Mill,Former Mill (in ruins),,Mill Lane,Stephenstown,,DU005-051,53.6012006345869,-6.18662870758539
71,Mill Dam,Part of historic mill complex,,Mill Lane,Stephenstown,,DU005-051,53.6009878555274,-6.18637095261748
800,White Hart House (incl Carria Geal),"17th century house, sub-divided into two properties - White Hart House & Carria Geal)",,White Hart Lane,Stephenstown (Balbriggan),,DU005-054,53.596351342806,-6.19107838904793
81,Holy Well,At side of house in village of Balrothery,,Old Coach Road,Balrothery,,DU005-05701,53.5911051581645,-6.18700217011225
86,Standing Stone,In middle of housing development in Balrothery village,,Old Coach Road,Rosepark (Balrothery),,DU005-05702,53.5873595457103,-6.18564364670796
84,Former Balrothery Church of Ireland Church,"Church, Inscribed Stone, Graveyard Walls & Gates",,Old Coach Road,Balrothery,2650/2,DU005-05703,53.5865578654001,-6.18980254726307
83,Church Tower,Medieval tower of Balrothery Church,,,Balrothery,11309002,DU005-05703,53.5865654808552,-6.19014853073036
85,Castle Tower House,Tower House (in ruins) adjacent to Balrothery Church,,,Glebe South (Balrothery),11309003,DU005-05706,53.5862239046038,-6.18983136840213
87,Holy Well & Potential Site,In middle of housing development in Balrothery,,Old Coach Road,Rosepark (Balrothery),,DU005-05707,53.5864487054345,-6.18542203233684
131,Ringgfort and site of armorial stone,"Limestone plaque with coat of arms was sited on lands of property called ""The Court""",,Ballymadun Road,Ballymadun,,DU006-00101,53.5299296149497,-6.40238698127634
129,Ballymadun Church (in ruins) & Graveyard,"The church with high square tower is in ruins, in graveyard enclosure",,Ballymadun Road,Glebe (Garristown),11319004,DU006-00201 +-00202,53.5328478498033,-6.39770170347543
132,Enclosure site,Earthwork,,off Cornstown Road,Cornstown,,DU006-00302,53.5292467086031,-6.37189002699312
133,Ringfort possible site,Earthwork,,Fieldstown to Garristown Road,Wyestown,,DU006-004,53.5329177042215,-6.36183455968869
141,Grallagh Church (in ruins) & St. Michael's Well,"Church, Graveyard & Holy Well",,Ashgrove Road,Grallagh,11314007,DU007-001 to 00104,53.5463331154166,-6.33036825646105
142,St. John's Well,Holy Well south of Grallagh Church,,Ashgrove Road,Cottrelstown,,DU007-002,53.5459145609279,-6.33044312978692
170,Mound site,Earthwork,,off Hollywood Road,Parnelstown,,DU007-003,53.548996952794,-6.24798502015825
144,Enclosure site,Earthwork,,Naul Road,Brownscross,,DU007-005,53.5316852291699,-6.32890501251446
146,Former St. Mary's Church of Ireland (in ruins),"Church 'Site of' (also known as Clonmethan Church), outside Oldtown",,Naul Road,Glebe (Clonmethan),11320004,DU007-00601,53.5291709572412,-6.3236490322843
148,Ringfort,"Impressive ringfort (2m high), outer ditch has been filled in",,Brownscross to Ballyboghil Road,Leastown,,DU007-007,53.5347265950704,-6.31235947087158
149,Westpalstown Church (in ruins),"Church, Graveyard & Building",,Newtown Lane,Westpalstown,11321010,DU007-008,53.5280214601812,-6.29968341583069
155,Church (in ruins) & Graveyard,Remains of large medieval church & graveyard which is still in use,,Main Street,Ballyboghill,11321001,DU007-01001 +-01002,53.5237633363648,-6.26993673847415
156,Enclosure Site,Earthwork,,Naul Road,Ballyboghill,,DU007-011,53.527201160453,-6.26682114146867
136,Mound site,Earthwork,,Ashgrove Road,Jordanstown,,DU007-012,53.5204856606291,-6.34757408386425
135,"Church (in ruins), Graveyard & Holy Well",Remains of medieval church in circular burial ground. Holy well is small pool to south,,Fieldstown to Garristown Road,Palmerstown,,DU007-01301 to -01303,53.511553420417,-6.3535163549978
150,Ringfort Site,Earthwork,,Drishoge Lane,Grange (Ballyboghil),,DU007-014,53.5203724511175,-6.27568942076994
322,Nunnery (in ruins),Remains of monastic site (Priory of St. Mary) and two Grave-slabs,,Ballyboghil Road,Gracedieu,,DU007-015,53.5094497199702,-6.22191219582711
321,Lady's Well & St. Bridget's Well,Site of Holy Wells (2) & Mound. Associated with Gracedieu Nunnery,,Ballyboghil Road,Gracedieu,,DU007-01503 to 01505,53.510311176931,-6.21980212389405
323,St. Bridget's Well,Holy Well in a field.,,off Baldurgan Lane,Baldurgan,,DU007-016,53.5026413206154,-6.250595109846
324,Mound,Earthwork,,Naul Road,Belinstown/Skidoo,,DU007-017,53.4992554857758,-6.26616146089509
157,Ring Barrows,Group of three ring barrows (burial mounds),,Ballyboghil to Devines Cross Road,Broomfield,,DU007-026,53.5276300895277,-6.25023942036639
488,Enclosure,Earthwork,,"Batter Lane, off N1 Road",Belinstown,,DU007-036,53.4927879297039,-6.21109557718506
308,Castle site,Archaeological site,,Lusk to Skerries Road,Collinstown,,DU008-001,53.5436884755,-6.16279983851162
307,Enclosure Site,Earthwork,,Lusk to Skerries Road,Collinstown,,DU008-002,53.5417068155836,-6.16321469264588
254,Castle (in ruins),Remains of tower house,,Skerries Road,Rush Demesne,,DU008-003,53.5389725008585,-6.09419016133277
256,Church (in ruins) & Graveyard,Church (in ruins) in graveyard enclosure,,Skerries Road,Rush Demesne,11324029,DU008-00401+-00402,53.5382353531075,-6.09252512114311
257,St. Catherines Well,Holy Well,,Skerries Road,Rush Demesne,,DU008-005,53.5381441743768,-6.09338549961027
252,Promontory Fort,Archaeological site,,off Skerries Road,Drumanagh,,DU008-00601,53.5414829917796,-6.08250372304545
253,Martello Tower,19th century circular military stone martello tower,,off Skerries Road,Drumanagh,11318004,DU008-00603,53.5403285085684,-6.07794572555286
305,Mound,Earthwork,,Quickpenny Lane,Regles (Lusk),,DU008-008,53.5313467914001,-6.17494470633833
304,Site of Monastic Complex,Covered by greenhouses to rear of buildings on The Green,,The Green,Regles (Lusk),,DU008-01002,53.528896699559,-6.17149217135524
298,Tower of St. Macculin's C of I Church,Medieval Church Tower (incl early Christian Round Tower & effigal tombs),,Church Road,Lusk,11323010,DU008-01003,53.5262302716759,-6.16724806111862
297,Community Centre Former St. Macculin's C of I Church,Converted 19th century church structure & Graveyard,,Church Road,Lusk,11323010,DU008-01005,53.5261284893875,-6.16685097885245
291,Enclosure,Earthwork,,,Effelstown,,DU008-011,53.5236303848614,-6.14203878668054
276,Windmill (in ruins),A stabilised ruin in open mounded green in middle of Rush,,Chapel Green,Rush,11324016,DU008-012--,53.5213022077696,-6.10445545081926
259,Passage Tomb & Cist,Stone burial sites,,off Skerries Road,Rush,,DU008-01301 +-01302,53.5328120905623,-6.08529725941538
274,Well,Well at ford,,Farren's Lane,Rush,,DU008-014,53.5245756674957,-6.09665456229231
265,Martello Tower,19th century circular military stone martello tower,,Tower Street,Rush,11324023,DU008-015--,53.521125453409,-6.07599091402007
319,Earthwork,Earthwork,,,Newtowncorduff,,DU008-016,53.5168298140154,-6.20303475733289
316,St. Catherine's Well,Holy Well 'site of',,,Staffordstown,,DU008-017,53.5155867515199,-6.17444983018512
317,Bridetree Wells,Site of Holy Well,,,Bridtree,,DU008-018,53.5143566948953,-6.17279246460452
318,Mound & Long Cist,Earthwork,,,Balleally West,,DU008-01901,53.5124889515192,-6.17105643630794
281,St. Maur's Well,Holy Well.,,Spout Road,Whitestown (Rush),,DU008-020,53.5173215364292,-6.12475355609253
279,St. Maur's Church (in ruins),Church (in ruins) & Graveyard,,Whitestown Road,Whitestown (Rush),11324015,DU008-02101 +-02102,53.5174333232996,-6.12155059036573
275,Tobar Caillin Holy Well,Holy Well,,Bawn Road,Rush,,DU008-022,53.5181098975169,-6.08825533915732
320,Burial,Earthwork,,,Coldwinters,,DU008-023,53.5003322408978,-6.19300066511447
492,Turvey House,Site of demolished late 17th century house,,Turvey Avenue,Turvey,11329004,DU008-02401,53.4948566253201,-6.1739338370958
517,Harbour possible,Archaeological site,,Beaverstown Rod,Beaverstown (Donabate),,DU008-026,53.5001766308151,-6.14359973631109
516,Beaverstown Viaduct,Eleven-arched railway viaduct over estuary,,Rogerstown Estuary,Beaverstown (Donabate),,DU008-026,53.5019753059435,-6.14902839240066
518,Windmill (in ruins),Remains of base of circular stone windmill,,off Beaverstown Road,Rahillion (Donabate),,DU008-027,53.4979001069643,-6.13785771731137
519,Chapel site,Archaeological site,,Burrow Lane,Burrow Portraine,,DU008-028,53.5003494495926,-6.12117451727849
520,St. Machubd's Well,Holy Well - Now in rear garden of recently renovated house,,Burrow Lane,Burrow Portraine,,DU008-029,53.4991629902862,-6.12034253298508
521,Stella's Tower (Portraine Castle in ruins),Remains of medieval stone structure,,,Portraine,,DU008-030--,53.4952398298247,-6.11511010439155
522,St. Catherine's Church (in ruins),"Ecclesiastical Remains, Church, Graveyard & Bullaun",,Portane Village,Portraine,,DU008-03101 to -03103,53.4939823723362,-6.11193919926815
541,Burial,Archaeological site,,Quay Road,Quay (Portraine),,DU008-032,53.4929381267784,-6.10361344009696
285,Cist,"In grounds of Knockdromin House, cist is a burial of stone slabs",,Rush to Lusk Road,Beau,,DU008-035,53.5187921673106,-6.13797983648253
515,Beaverstown House,"House, Barn, Out-offices & Yard",,Beaverstown Road,Beaverstown (Donabate),11329010,DU008-044,53.4936120660139,-6.1454092891586
783,Earthwork Possible,Earthwork,,,Lambay Island,,DU009-001,53.4920412801935,-6.0151332296147
775,Lambay Castle,"House comprising Castle, Out-Offices, Memorial, Walled Garden, Rampart Walls & Gates",,,Lambay Island,,DU009-00105 +-00106,53.4916709332418,-6.02518080179351
782,Chapel & Enclosure,Small chapel enclosed by hedge and wooden gate to the south of The White House,,,Lambay Island,,DU009-00108 +-00109,53.49263007018,-6.02753657880053
779,Real Tennis Court,Early 20th century enclosed tennis court,,,Lambay Island,,DU009-00110,53.4909595499154,-6.0172129430091
780,Knockbane Cairn & OS Marker,Ordnance Survey Triangulation Station marker on Knockbane Cairn,,,Lambay Island,,DU009-00112,53.4933623303263,-6.01618633293609
781,Promontory Fort,"Headland protected by triple rampart, known as Garden Fort",,,Lambay Island,,DU009-00113,53.4953925141658,-6.02352171744362
777,Coastguard Cottages & Enclosed Courtyard,Six coastguard cottages,,,Lambay Island,,DU009-00115,53.4921399689132,-6.02881666111698
328,Ringfort,Earthwork,,Fieldstown to Swords Road,Newbarn,,DU011-001,53.4902749618552,-6.32527375128664
326,St. Catherine's Church,Ecclesiastical Remains,,Fieldstown to Oldtown Road,Fieldstown,,DU011-00201 + -00202,53.4918490995065,-6.31934241099698
327,St. Catherine's Well,Holy Well,,Fieldstown to Oldtown Road,Fieldstown,,DU011-00204,53.4915132963699,-6.31723770566623
329,Mound,Earthwork,,Fieldstown to Swords Road,Newbarn,,DU011-004,53.4897900733323,-6.3198419889157
335,Killossery Church (in ruins),"Ecclesiastical remains, church, font, graveyard & enclosure",,Rowlestown Village,Killossery,11327005,DU011-00501 to -00503,53.4885057158312,-6.3044928504394
650,Ruins of Mountstuart House,Remains of house & dwellings site (low earthworks),,,Mountstuart,,DU011-00601 + -00602,53.478082485847,-6.29473566332519
659,Ringfort (Rath/Cashel),"Platform type ringfort (46m in diameter), surrounded by deep ditch",,,Dunmucky,,DU011-008,53.4672166145291,-6.3509757821427
656,Kilsallaghan Cross,Site of cross,,,Kilsallaghan,,DU011-010,53.4743967330366,-6.31964092555569
653,Saint David's Church (C of I),"Church of Ireland church, plus site of earlier church & Graveyard",,Fieldstown Road,Castlefarm,11333001,DU011-011,53.4764348579229,-6.31807577630487
654,Kilsallaghan Castle,Remains of castle ruins,,Fieldstown Road,Castlefarm,,DU011-01104,53.4758765735047,-6.31820691360092
655,Kilsallaghan Motte,Earthwork mound,,Fieldstown Road,Castlefarm,,DU011-01106,53.4751918851743,-6.31828949932464
649,Settlement deserted,Earthwork,,,Surgalstown South,,DU011-012,53.4682412141501,-6.30633674095268
648,Mound site,Earthwork,,off Leas Road,Surgalstown South,,DU011-013,53.4659912374344,-6.29358937675058
338,Rathbeale Hall,Main house plus outbuildings & gatelodges (x2),,Rathbeale Road,Rathbeal (Swords),11334001,DU011-014,53.4725588046067,-6.26682655474239
377,Dwelling Site,Earthwork,,off Rathbeale Road,Rathbeal,,DU011-015,53.4664401664276,-6.26412681390646
378,Fortifications possible,Earthwork,,off Rathbeale Road,Rathbeal (Swords),,DU011-016,53.4669307005425,-6.26187452084903
370,Glasmore Abbey & St. Cronan's Well,Abbey and Well. Church in ruins.  Fenced off in open space of Lioscian housing estate,,"Lioscian Estate, St. Cronan's Ave",Mooretown (Swords),,"DU011-018, DU011-019",53.4645019796413,-6.24263199217827
644,Freedagh Mound,Motte possible,,off Fieldstown to Skephubble Rd,Corrstown,,DU011-020,53.4624412147897,-6.31538365860838
642,Enclosure(s),Earthwork,,,Newpark,,DU011-021,53.4533351050129,-6.31987549616992
641,Chapelmidway Church,Church (ruins) in graveyard enclosure. Graveyard still in use,,off Fieldstown to Skephubble Rd,Corrstown,,DU011-02201,53.4555803977842,-6.31046530333558
640,Enclosure & graveyard,Earthwork,,,Common,,DU011-02301 + -02302,53.4503942197184,-6.30860060820016
638,Fulacht Fiadh possible,"Earthwork, Fulacht Fiadh denotes cooking place.",,"St. Margaret's Golf Club, Toburburr Road",Toberburr,,DU011-024,53.4506963042615,-6.29640088699156
635,Ringfort (Rath/Cashel),Earthwork,,Killeek Lane,Killeek,,DU011-025,53.4495922454767,-6.28736427794582
365,Motte,Large man-made mound at edge of ravine on north bank of River Ward,,Brackenstown Road,Brazil (Swords),,DU011-027,53.4581127490179,-6.26665838451525
367,Knocksedan Bridge,Large single arch stone bridge over river with footpaths at each side,,Naul Road,Knocksedan/Brazil,11342001,DU011-028,53.4573906237903,-6.26686707706085
368,Mound,Earthwork,,Naul Road,Knocksedan,,DU011-029,53.4566233097901,-6.26789421103873
633,Killeek Chuch & graveyard,"Ecclesiastical Remains, graveyard still in use",,Killeek Lane,Killeek,11342010,DU011-031,53.4533558563049,-6.27849274707153
375,Cemetery,Old graveyard,,Naul Road,Brackenstown,,DU011-032,53.4496149810071,-6.25846142390705
351,Swords Castle,"Remains of Episcopial Manor, terminates north end of Main St. Set in town park",,Main Street,Townparks (Swords),,DU011-03401,53.4599695941473,-6.22056526338198
360,St. Columba's Church of Ireland Church,"19th century church plus ecclesiastical remains, Round Tower, Graveyard, Whetstone, Cross, Sheela-na-gig",,Church Road,Swords Glebe (Swords),11343007,DU011-03402 to 03411,53.4572412976943,-6.22458863859442
355,Earthwork Unclassified,Earthwork,,Seatown Road,Seatown West (Swords),,DU011-036,53.4620613306034,-6.21268092999663
661,Church Well,Holy Well in field adjoining Ward Lower Church,,Ward Road,Ward Lower,,DU011-038,53.4415319564333,-6.35053679222582
660,Church & Graveyard (in ruins),Church in ruins,,Ward Road,Ward Lower,,DU011-03901 + -03902,53.4422021076662,-6.3494391417115
637,Mound,Earthwork,,Shallon Road,Shallon,,DU011-040,53.4466861338521,-6.31213635845534
632,Ringfort site,Earthwork situated on elevated positions.,,Killeek Lane,Killeek,,DU011-041,53.4465094629758,-6.27501372556006
630,Chapel site & burial ground,Ecclesiastical remains,,Killeck Lane,Forrest Great,,DU011-04201,53.4461060882469,-6.26710253153334
629,Ringfort site,Earthwork,,Naul Road,Forrest Great,,DU011-043,53.4392375069029,-6.26493692074426
631,Dwelling,Earthwork,,Cooks Road,Forrest Great,,DU011-044,53.4404817268462,-6.25824954801663
371,St. Werburgh's Well,Holy Well - A small well enclosed by a low stone wall in a wet drain,,"Airside Business Park, Lakeshore Drive",Crowcastle (Swords),,DU011-045,53.4498353815826,-6.21637335477298
610,Ringfort site,Earthwork site,,Naul Road,Cloghran (Swords),,DU011-046,53.4352986796353,-6.23554998378185
356,St. Columcille's Church,"Catholic Church, font, graveyard",,Chapel Lane,Swords Demense,11343010,DU011-070,53.4580094112502,-6.21722975035945
341,Lissenhall Bridge,Stone bridge over Broadmeadow River,,Estuary Road,Lissenhall (Swords),11335019,DU011-081,53.4711449863162,-6.21237784326924
340,Balheary Bridge,Stone bridge over Broadmeadow River,,River Ward Park,Balheary (Swords),11335018,DU011-081,53.470149848441,-6.21272303320172
791,Roganstown Bridge,Historic five-arch stone bridge,,Naul Road,Roganstown (Swords),11327003,DU011-082,53.4884347534163,-6.27044695153475
487,Castle site & Enclosure,Archaeological complex possibly including Belinstown Castle,,"Batter Lane, off N1 Road",Belinstown,,DU012-001,53.4890599333261,-6.20774158497584
486,Ringfort possible site,Earthwork,,N1 Road,Lissenhall Little,,DU012-002,53.485574976056,-6.20057469875612
485,Ring-ditch,Earthwork,,off N1 Road,Lissenhall Little (Swords),,DU012-003,53.4838367402968,-6.20519441971893
493,Lanestown Castle (in ruins),Remains of square tower house,,Grounds of Newbridge House,Newbridge Demesne,,DU012-004,53.483081037157,-6.1780995719862
508,St. Patrick's Church of Ireland Church,"18th century Church, remains of square pre-1700 tower, memorial slab & graveyard",,The Square,Donabate,11336013,DU012-005--,53.4856612280722,-6.15442458366101
497,Ringfort possible site,Earthwork,,off Portrane Road,Lanestown,,DU012-006,53.4781312324036,-6.17090544164587
540,Chink Well,A well in a cave on the seashore which is covered by high tide,,in grounds of St. Ita's Hospital,Quay (Portrane),,DU012-007,53.4857825520388,-6.10209240948221
543,Martello Tower,19th century circular military stone martello tower,,Balcarrick Road,Balcarrick (Donabate),11337001,DU012-008--,53.4783248331518,-6.11535884094303
538,Church & St. Kenny's Well,Site of Church & Holy Well,,in grounds of St. Ita's Hospital,Portraine Demesne,,DU012-00901 +-00902,53.4838186697076,-6.10845006459552
542,"""Tower House""",Former Martello Tower adapted to residental use,,Quay Road,Quay (Portrane),,DU012-010,53.4899922197229,-6.09690802672977
484,Church (in ruins) & Graveyard,"Oval raised area enclosed by wall, rectangular sunken area indicates site of church",,Ballymadrough Road,Ballymadrough,,DU012-01301 +-01302,53.4736197011457,-6.1838133229036
496,Motte possible,Mound in field to west of Kilcrea Road,,off Kilcrea Road,Ballymadrough,,DU012-014,53.4779744059026,-6.17392242632651
343,Ringfort site possible,Earthwork,,,Lissenhall Great,,DU012-015,53.4695633953191,-6.20507948621483
499,Church (in ruins) & Graveyard,Remains of small single chamber church,,Kilcrea Road,Kilcrea,,DU012-01601,53.4755269654061,-6.16703333259088
498,Ringfort possible site,Earthwork,,Kilcrea Road,Kilcrea,,DU012-017,53.4774154008104,-6.16455667222619
501,Tidal Mill Possible,Stone remains of mill marked on Rocque map of 1756,,off Kilcrea Road,Kilcrea,,DU012-018,53.4741003721851,-6.15908981520813
503,Earthwork site,Earthwork,,Corballis Road,Corballis,,DU012-019,53.4767594327487,-6.14672241873133
504,Corballis House,House & Outoffice & site of Castle,,Corballis Road,Corballis (Donabate),,DU012-020,53.4739361047073,-6.14101888777061
379,Seatown House,"House, out-offices and tower house/castle remains, over looking Malahide Estuary",,Estuary Road,Seatown East (Swords),,DU012-021,53.4621047335636,-6.1966557102963
390,St. Sylversters Well,Holy Well - enclosed circular stone structure with conical roof,,Old Street,Malahide,11344011,DU012-02301,53.4512401589172,-6.15486752083697
389,St. Sylvester's Catholic Church,19th century Catholic Church & Parish Hall,,Dublin Road,Malahide,11344010,DU012-02301 to -02303,53.4509146374068,-6.15497430873997
450,Mound,Earthwork,,Streamstown Lane,Auburn,,DU012-028,53.4380660759359,-6.18277047652086
442,Earthwork'Site of',Earthwork in grounds of Malahide Castle,,,Malahide Demesne,,DU012-029,53.4458276142208,-6.16836368345467
383,Malahide Castle,"Castle, gatelodges (x4), stone outbuildings, entrance gates & piers",,Dublin Road,Malahide Demesne,11344019,DU012-030,53.4449296317744,-6.16457164748415
384,Malahide Abbey (in ruins),"Church in ruins, Graveyard and Sheela-na-gig within grounds of Malahide Castle",,off Dublin Road,Malahide Demesne,11344020,DU012-03101 to 03106,53.4449621576689,-6.16359453954021
474,Ringfort Site,Earthwork,,The Hill,Broomfield/Grange (Malahide),,DU012-033,53.4349351797508,-6.15623472489339
445,Motte & Bailey,"Anglo-Norman earthwork of former castle and settlement site, in field north of Wheatfield House",,Blackwood Lane,Sainthelens (Malahide),,DU012-034,53.4375858404533,-6.14612665761133
421,Hicks Tower,Former Martello Tower adapted for residental use,,Coast Road,Robswalls (Malahide),11344040,DU012-035,53.4476977602556,-6.13566337115818
422,Robswalls Castle,Five-bay two-storey house connected to 15th century stone tower house,,Coast Road,Robswall (Malahide),11345001,DU012-036,53.4445350150397,-6.12802626469982
443,Settlement,Earthwork,,Elner Court,Robswalls (Portmarnock),,DU012-037,53.4384316674063,-6.13011992569708
444,St. Patrick's Well,Holy Well,,off Coast Road,Robswall (Malahide),,DU012-038,53.4410537025286,-6.12844836012505
476,Martello Tower,Former Martello Tower adapted for residental use,,Strand Road,Carrickhill (Portmarnock),11345002,DU012-040,53.4359240696197,-6.12230662656487
481,Bridge near Newport House,Disused double-arched random rubble stone bridge at end of Ballymadrough Road,,Ballymadrough Road,Ballymadrough,11336007,DU012-042,53.4667455749539,-6.18753363101604
494,Newbridge House,"Main house plus outbuildings, walled gardens, gates & gate piers",,Lissenhall to Donabate Road,Newbridge Demesne (Donabate),11329001,DU012-060,53.4867915787068,-6.16809410363744
669,Enclosure Site,Earthwork,,,Kilmartin,,DU013-001,53.4340146041977,-6.41719240348918
668,Kilmartin Church (in ruins),"Ecclesiastical remains, church, ecclesiastical enclosure",,Kilmartin Lane,Kilmartin,,DU013-002 to -00202,53.4337517904675,-6.40327338633171
667,"Earthwork ""site of""",Earthwork,,,Kilmartin,,DU013-003,53.4332669983039,-6.39144948671508
666,Mound,Earthwork,,"Hollystown Golfcourse, Rathoath Rd",Hollystown,,DU013-004,53.432402170394,-6.38283965596337
673,Tyrrelstown House,Five-bay two-storey house & Out-offices,,Powerstown Road,Tyrrelstown,11346002,DU013-006,53.4164049633105,-6.39464113027113
676,Field System Site,Earthwork,,,Goddamendy,,DU013-007,53.4165645123273,-6.36740909456049
674,Cloghran Church (in ruins) & Graveyard,Church in ruins within graveyard,,Rathoath Road,Cloughran (Castleknock),,"DU013-008, DU014-046",53.414456618099,-6.35869462766392
671,Lady's Well,Enclosed Holy Well in vaulted structure,,Church Road,Tyrrelstown,11353010,DU013-009,53.4084384502545,-6.3918576189053
670,Mulhuddart Church (in ruins) & Graveyard,Church in ruins & graveyard still in use,,Church Road,Buzzardstown,11346003,DU013-01001 + -01002,53.4104736721264,-6.3893933516578
679,Mound,Comprises a circular round-topped mound (2m high). Notated 'Moat' on OS Map,,off Warrenstown Green,Corduff,,DU013-012,53.4026787986196,-6.38205044145139
678,Mound,Circular earthern mound incorporated into carpark to form traffic island,,"Blanchardstown Industrial Park, Snugborough Rd",Corduff,,DU013-014,53.403004211707,-6.36943398188085
680,Ringfort possible,"Remains of platform ringfort (3m high) in grounds of Corduff House, to south west of house",,Old Corduff Road,Corduff,,DU013-015,53.3981982092852,-6.38056456254259
705,St. Mary's Church,Church of Ireland Church and archaeological site of earlier church,,Clonsilla Road,Clonsilla,11353005,DU013-01701,53.3842663971208,-6.42260740758434
708,Ring Barrows possible,3 conjoined enclosures beside railway line at Green Mount house.,,Clonsilla Road,Kellystown,,DU013-018,53.3823004903553,-6.42190470299906
701,Coolmine Church (in ruins),"Ecclesiastical remains, church site & graveyard",,Blanchardstown Road,Coolmine,,DU013-019,53.3901033318866,-6.3994033737275
684,Church (in ruins) & Graveyard,Remains of small church & burial ground,,Snugsborough Road,Abbotstown,11354005,"DU013-020, DU014-031",53.3883659677858,-6.35883765973089
717,Westmanstown Park House,Three-bay two-storey over basement house,,Barnhill to Lucan Road,Westmanstown,11360001,DU013-034,53.3809103348831,-6.45686813478765
662,Kilshane Moat,Possible Motte site.,,N2 (Ashbourne) Road,Kilshane,,DU014-001,53.4329339596772,-6.33839162792553
626,St. Margaret's Church (in ruins),"Ecclesiastical remains, church, architectural fragments, graveyard & church site",,St. Margaret's Village,St. Margaret's,11348001,DU014-002,53.4335978592145,-6.29957671819135
624,St. Bridget's Well,Holy Well located west of Catholic Church,,St. Margaret's Village,St. Margaret's,,DU014-003,53.4311458788968,-6.30270027188671
623,Dunsoghly Castle,15th century Tower House with its original timber roof,,off N2 Road,Dunsoghly,,DU014-00501,53.4257060717743,-6.31968307431691
619,Ringfort (Rath/Cashel) Enclosure(s) site,Earthwork,,,Newtown (Finglas),,DU014-00601 + -00602,53.4202290278608,-6.31570353903135
620,Ringfort possible site,Earthwork,,,Newtown (Finglas),,DU014-007,53.4218745759801,-6.31269311138033
609,Cloghran Church (in ruins) & Graveyard,Site of 18th century church now demolished on site of earlier church. Enclosed graveyard,,Stockhole Lane,Cloghran (Swords),,DU014-00901,53.4328877751595,-6.22785289824042
607,Lady Well,"Site of Holy Well, in field to south of Lane.",,Stockhole Lane,Cloghran (Coolock),,DU014-010,53.4306892514249,-6.22433636914554
663,Kilshane Church (in ruins) & Holy Well,"Ecclesiastical remains, church possible, graveyard, holy well",,off N2 (Ashbourne) Road,Kilshane,,DU014-012,53.4185477960066,-6.33035995201829
675,Enclosure(s) Site,Enclosures & souterrain possible.,,Rathoath Road,Cloghran,,DU014-014,53.4140280845481,-6.35532395551711
622,Enclosure,Earthwork,,off Ashbourne Road,Coldwinter,,DU014-015,53.4119803360612,-6.31736306536029
621,Enclosure,Earthwork,,R122 Road,Dubber,,DU014-017,53.4131696166502,-6.3061180475338
616,Dubber Castle,Site of Castle,,Dubber Lane,Dubber,,DU014-018,53.4142088376332,-6.30056682161765
617,Dubber House,House on archaeological site,,Dubber Lane,Dubber,,DU014-019,53.4138947096133,-6.30071702583134
615,Meakstown Castle,Site of Castle opposite Meakstown House,,St. Margaret's Road,Meakstown,,DU014-020,53.4063253505692,-6.29235697139363
618,Field System possible site,Earthwork,,off St. Margaret's Road,Silloge,,DU014-021,53.4146557434439,-6.28199457549349
614,Ringfort site,Earthwork,,St. Margaret's Road,Balcurris,,DU014-022,53.4061120299544,-6.27812155618386
602,Holy Well,Holy well site,,off Swords Road,Toberbunny,,DU014-023,53.4195956370572,-6.23015721620715
681,Castle 'Site of',Archaeological site,,Ballycoolin Road,Cappoge,,DU014-027,53.3976253771509,-6.33786305379903
682,Ringfort,"""Tumulus"" - circular mound in field opposite Cappagh Orthopaedic Hospital",,Cappagh Road,Cappoge,,DU014-029,53.396732448173,-6.32482634680982
685,Mound,Impressive mound in a field.,,Dunsink Lane,Dunsink,,DU014-032,53.3883553880071,-6.35177431731633
689,Cemetery,Archaeological site,,River Road,Castleknock,,DU014-034,53.3831825370403,-6.35606074927531
605,Mound,Earthwork,,off Clonshaugh Road,Cloghran (Swords),,DU015-001,53.4288121140094,-6.21044679059585
455,Church (in ruins) & Graveyard,Remains of church,,Chapel Road,Kinsaley,11350033,DU015-00201 +-00202,53.4245488263875,-6.16857157702974
473,Ringfort Site,Earthwork,,Drumnigh Road,Grange Malahide,,DU015-004,53.4325567079513,-6.15617848766396
472,Ringfort Site,Earthwork,,Drumnigh Road,Grange Malahide,,DU015-005,53.4302872003066,-6.15548055665387
477,Ring-ditch possible site,Earthwork,,Strand Road,Burrow Malahide (Portmarnock),,DU015-006,53.4305031783491,-6.12632279249355
478,Church (in ruins),"Ecclesiastical Remains, Church, Holy Well, site of Ogham Stone",,Strand Road,Burrow Malahide (Portmarnock),11351005,DU015-007 to -00705,53.427024028705,-6.12796051567055
601,Ringfort,Earthwork,,off Clonshaugh Road,Middletown,,DU015-008,53.4209037910532,-6.20277377145382
459,St. Doolaghs Church & Well & St. Catherine's Well,"Ecclesiastical Remains, Church, Graveyard, Cross and Holy Well (x2)",,Malahide Road,Saint Doolaghs,11350016 & 11350017,DU015-00901 to 00906,53.4152141813143,-6.17913100716121
465,Ringfort possible,Earthwork,,off Malahide Road,Kinsaley,,DU015-010,53.416925849233,-6.17253574618951
467,Ring-ditch possible site,Earthwork site,,,Saintdoolaghs,,DU015-011,53.414301832842,-6.17352382197933
469,Balgriffin Park Church,"Ecclesiastical Remains, Church Site, Grave slab fragment",,off Balgriffin Road,Balgriffin Park,,DU015-01201,53.4086192803518,-6.17076838702548
475,Mound,Earthwork,,Station Road,Portmarnock,,DU015-014,53.4178188333284,-6.14599626872899
589,Martello Tower,19th century circular military stone martello tower,,,Ireland's Eye,11359042,DU015-016,53.4082940722249,-6.06976454050934
552,Mound,Mound forms part of landscaped garden of residence (3m high),,Claremount Road,Quarry (Sutton),,DU015-020,53.3923641067005,-6.09425786875755
549,Kilbarrack Church & Graveyard,Church is in ruins but walled graveyard has been extended and is still in use,,Dublin Road,Kilbarrack Lower,,DU015-02101 +-02102,53.3874232268742,-6.13307437703031
590,Cemetery,Archaeological site,,"Sutton RFC, Station Road",Burrow Howth,,DU015-022,53.3904804665845,-6.11591384571512
591,Site of Burial Mound,Earthwork,,Dublin Road,Sutton,,DU015-023,53.3894184851178,-6.11264504549986
551,Corr Castle,Remains of 16th century castle of St. Lawrence family in open space at centre of apartment development,,Howth Road,Howth Demesne,,DU015-025,53.3899059705303,-6.09409804083682
557,Church (ruin),Chapel ruins  in grounds of and close to Howth Castle.,,Grounds of Howth Castle,Howth Demesne,,DU015-026,53.386898647964,-6.07981169491995
556,Howth Castle,"Castle, Wings, Tower, Stables, Gates, and Chapel Grounds",,,Howth Demesne,11358029,DU015-02701,53.3861134413286,-6.07938537994962
566,Burial Mound site,Earthwork,,Harbour Road,Howth,,DU015-02801 + -02802,53.3884555430979,-6.07187568471321
568,St. Mary's Abbey (in ruins),"Church in ruins, incl belfry and graveyard",,Abbey Street,Howth,11359010,DU015-029,53.3876135004347,-6.06609197410166
569,Howth College,Stone walls of pre-1700 building,,Abbey Street,Howth,,DU015-030,53.3871644298061,-6.06572291451318
575,St. Fintan's Church (in ruins) & Graveyard,Remains of church & graveyard,,Carrickbrack Road,Sutton South,11358033,DU015-03102,53.3776828410529,-6.09082263736843
582,Portal Tomb,"Known as 'Aideen's Grave', in grounds of Deer Park Golf Course, Howth Castle",,"Deerpark Golfcourse, Howth Castle",Howth Demesne,,DU015-032,53.3796805867988,-6.08170227410707
463,Belcamp Hall,"""Belcamp College"" school complex (incl House, Chapel, Washington Monument, bridge, ballcourt, & ice-house)",,"Belcamp College, N32 Road",Belcamp,11350024,DU015-033,53.4074466253824,-6.18741093293274
792,Springhill,Early 19th century house and stone outbuildings,,"Limekiln Lane, off Malahide Road",Springhill (St. Doolaghs),11350013,DU015-056,53.4158575332638,-6.19049417408932
588,St. Nessan's Church,Remains of medieval church,,,Irelands Eye,,DU016-00101,53.4058113511323,-6.06474426501487
570,Martello Tower,"19th century circular military stone martello tower overlooking Howth Harbour, accessed from Abbey Street.",,off Abbey Street,Howth,11359033,DU016-00202,53.3876643043157,-6.06362308267395
585,The Great & Little Baily Promontory Fort,"Promontory Fort, Cashel & Midden - major archaeological complex",,off Thormanby Road,Howth,,DU016-003,53.3657885597481,-6.05576927352671
586,Old Baily Lighthouse Keeper's Cottages,Pair of semi-detached three-bay single-storey lighthouse keepers houses with dormer attics,,The Bailey,Howth,11367006,DU016-003,53.362878007122,-6.05356464413765
587,The Baily Lighthouse,"Coastguard station comprising of Lighthouse, Out offices and Tank.",,off Thormanby Road,Howth,11367007 & 11367008,DU016-00304,53.3615682506321,-6.05242003113227
714,St. Catherine's Wells,Holy Well - Two small adjoining low grotto stone lined holy wells,,The Avenue,St. Catherine's Park (Leixlip),11360003,DU017-00201 to -00202,53.3669655787407,-6.47280332076205
716,Church (in ruins),Ruined rubble stone church,,The Avenue,St. Catherine's Park (Leixlip),,DU017-003,53.3651919128655,-6.47198404639688
723,Luttrelstown Castle,"Main building plus outbuildings, gatelodges, follies, gates & gate piers",,Luttrellstown Road,Woodlands,11361036,DU017-004,53.3734882016062,-6.43101678086213
730,Ring ditch,Earthwork beside St. Mochta's Church,,Luttrellstown Road,Porterstown,,DU017-005,53.3711916921394,-6.40504133839839
733,Mound,"Possible ringfort, in SE corner of level arable field (1.75m high)",,"off Lower Road, Strawberry Beds",Astagob,,DU017-007,53.3656778506045,-6.40411558621501
765,St. Brigid's Church of Ireland Church,19th century church & graveyard,,Castleknock Road,Castleknock,11362003,DU017-00801,53.3732153484088,-6.36406568581934
764,St. Brigid's Well,Holy Well - marked by cast iron pump,,College Road,Castleknock,,DU017-009,53.3728348750612,-6.36266279273509
732,Habitation Site,Earthwork,,,Diswellstown,,DU017-010,53.36656248591,-6.38209870715239
738,Rag Well,Holl Well slabbed over at road junction. The rear wall is inscribed with the words 'Ragwell',,Luttrellstown Road,Diswellstown,,DU017-011,53.3671391397172,-6.37848147313586
748,Castleknock Castle (in ruins),"Motte and Bailey, Castle, Well (2), graveyard",,"Castleknock College, College Road",Castleknock,11362021 & 11362017,DU017-01201 to - 01204,53.3679749015167,-6.37002241198426
751,Windmill (in ruins),Remains of circular stone tower on mound,,"Castleknock College, College Road",Castleknock,,DU017-01302,53.3681514652389,-6.36595071712133
720,Coldblow Bridge (remains),"Bridge & piers of old bridge, in grounds of ""Bleach Green"" house",,off Barnhill Cross Roads,Coldblow (Lucan),,DU017-016,53.3586641750113,-6.4522560948385
721,Sunday Well,Holy Well,,Barnshill Cross Road,Laraghcon,,DU017-017,53.3600613641058,-6.4496907384547
722,"Castle ""Site of """,Archaeological site,,Lucan Road,Laraghcon (Lucan),,DU017-018,53.3608778011788,-6.44513243521778
726,Anna Liffey Mill,Former Flour Mill (incl turbines),,Lower Road,Woodlands,11361034,DU017-076,53.3684729934013,-6.4329303662814
576,St. Fintan's Well,Holy Well.,,"""Iniscara"", Carrickbrack Road",Sutton South,,DU019-002,53.375007081336,-6.09009851388116
581,Passage Grave Cairn,"Cairn. Located within Howth Castle Demesne, south of Deerpark Hotel.",,Shielmartin,Sutton South,,DU019-003,53.3734874698639,-6.08353163157076
583,Tumulus at Dunhill,Cairn & Disc-Barrow - stone burial mounds,,Howth Head,Howth Demesne,,DU019-00401,53.3756278851319,-6.07690733998771
579,Martello Tower,Former Martello Tower adapted to residence,,off Shielmartin Road,Sutton South,11366017,DU019-005,53.3693467323528,-6.0960316356197
584,Cairn at Blackheath,"Stone burial mound on Howth Head, in grounds of Howth Castle",,"Howth Head, off Windgate Road",Howth Demesne,,DU019-006,53.3698478025099,-6.07155196857733
580,Drumleck Castle,Site of Castle in grounds of Drumleck House,,Ceanchor Road,Censure (Howth),,DU019-007,53.3613494989824,-6.07829551298703
